BCCSAT-1                
1 48041U 21022AK  24193.69987062  .00093589  00000+0  14496-2 0  9999
2 48041  97.4584 101.7475 0006272  51.7689 308.4127 15.53691849181730
BEESAT-7                
1 48084U 21022AN  24193.21496141  .00325100  00000+0  23335-2 0  9996
2 48084  97.4501 102.9253 0006400 103.2646 256.9331 15.72684862181521
BEESAT-8                
1 48085U 21022AP  24193.69168946  .00029671  00000+0  89552-3 0  9996
2 48085  97.4743  96.0470 0013327  49.5897 310.6506 15.34140823181636
LEDSAT                  
1 49069U 21073D   24194.18174248  .00017861  00000+0  69924-3 0  9991
2 49069  97.4360 265.1591 0019126 191.2759 168.8053 15.25697650160263
SITRO-AIS 5 (KATYS)     
1 57176U 23091L   24194.16181699  .00009307  00000+0  59111-3 0  9990
2 57176  97.6105 246.1351 0018053  41.2722 318.9867 15.08943809 57262
SITRO-AIS 6 (CHIRKIN)   
1 57192U 23091AC  24194.14599324  .00008740  00000+0  55452-3 0  9998
2 57192  97.6107 246.1459 0017991  41.7389 318.5208 15.09004600 57268
SITRO-AIS 8 (ANOKHIN)   
1 57193U 23091AD  24194.17469319  .00009310  00000+0  58493-3 0  9994
2 57193  97.6098 246.2529 0017534  42.2205 318.0370 15.09349829 57274
SITRO-AIS 7 (FARTUSHNIY)
1 57194U 23091AE  24194.15175671  .00009000  00000+0  57163-3 0  9997
2 57194  97.6105 246.1312 0017829  42.0745 318.1849 15.08958333 57263
SITRO-AIS 10 (BURDAEV)  
1 57199U 23091AK  24194.18107275  .00009837  00000+0  58828-3 0  9997
2 57199  97.6115 247.2357 0012429  32.7228 327.4769 15.11196044 57332
SITRO-AIS 9 (SHCHUKIN)  
1 57201U 23091AM  24194.17966076  .00009803  00000+0  58659-3 0  9997
2 57201  97.6109 247.2129 0012391  32.5957 327.6035 15.11177882 57338
SITRO-AIS 12 (SMIRENNIY)
1 57204U 23091AQ  24194.13899110  .00009610  00000+0  57210-3 0  9998
2 57204  97.6124 247.3134 0012259  27.8229 332.3654 15.11371764 57332
SITRO-AIS 11 (SHEFFER)  
1 57208U 23091AU  24194.18949239  .00009167  00000+0  54464-3 0  9990
2 57208  97.6117 247.3884 0012079  27.5734 332.6134 15.11457672 57348
SITRO-AIS 29            
1 59052U 24039B   24194.16934210  .00022769  00000+0  80572-3 0  9995
2 59052  97.3926 155.9874 0019995 124.3112 236.0024 15.28964937 20413
SITRO-AIS 30            
1 59053U 24039C   24194.16979259  .00022548  00000+0  79945-3 0  9995
2 59053  97.3925 155.9825 0020077 125.0087 235.3041 15.28900702 20401
SITRO-AIS 31            
1 59054U 24039D   24194.16096222  .00022283  00000+0  78674-3 0  9990
2 59054  97.3926 155.9949 0019986 124.8850 235.4272 15.29042404 20428
SITRO-AIS 33            
1 59055U 24039E   24194.15078617  .00022182  00000+0  78005-3 0  9994
2 59055  97.3928 156.0138 0019681 125.5088 234.7991 15.29180646 20416
SITRO-AIS 35            
1 59056U 24039F   24194.21234092  .00022227  00000+0  78100-3 0  9999
2 59056  97.3926 156.0814 0019480 125.4312 234.8750 15.29210554 20429
SITRO-AIS 32            
1 59057U 24039G   24194.15507907  .00022296  00000+0  78680-3 0  9990
2 59057  97.3929 156.0072 0019542 125.7370 234.5691 15.29067541 20411
SITRO-AIS 34            
1 59058U 24039H   24194.15088783  .00022410  00000+0  78900-3 0  9990
2 59058  97.3929 156.0151 0019686 125.7122 234.5953 15.29139245 20416
SITRO-AIS 36            
1 59059U 24039J   24194.20698797  .00022542  00000+0  79036-3 0  9996
2 59059  97.3926 156.0886 0019264 125.6080 234.6958 15.29282182 20429
SITRO-AIS 49            
1 59060U 24039K   24194.20758739  .00022468  00000+0  78896-3 0  9991
2 59060  97.3927 156.0880 0019295 125.1778 235.1272 15.29232715 20421
SITRO-AIS 50            
1 59061U 24039L   24194.19673684  .00024809  00000+0  86606-3 0  9994
2 59061  97.3925 156.1011 0019175 125.3544 234.9492 15.29405497 20427
SITRO-AIS 51            
1 59062U 24039M   24194.19649619  .00023573  00000+0  82352-3 0  9997
2 59062  97.3925 156.1022 0019203 125.2060 235.0982 15.29391835 20420
SITRO-AIS 52            
1 59063U 24039N   24194.18919000  .00023621  00000+0  82266-3 0  9999
2 59063  97.3926 156.1131 0019054 125.1758 235.1270 15.29494419 20423
SITRO-AIS 25            
1 59066U 24039R   24194.17452712  .00003968  00000+0  38160-3 0  9999
2 59066  95.4019 114.2910 0168612 256.9133 101.3220 14.83176457 19811
SITRO-AIS 26            
1 59067U 24039S   24194.17456341  .00004034  00000+0  38830-3 0  9991
2 59067  95.4019 114.2901 0168554 256.9477 101.2881 14.83141815 19810
SITRO-AIS 27            
1 59068U 24039T   24194.16258788  .00003819  00000+0  36649-3 0  9992
2 59068  95.4021 114.3049 0168156 256.7954 101.4460 14.83316850 19812
SITRO-AIS 28            
1 59071U 24039U   24194.15934279  .00003838  00000+0  36804-3 0  9995
2 59071  95.4022 114.3091 0167986 256.7839 101.4595 14.83359067 19812
BEIJING 1               
1 28890U 05043A   24194.20170126  .00000544  00000+0  11703-3 0  9995
2 28890  98.2032 316.8809 0014215 332.4887  27.5560 14.62388364997551
HUANJING 1A (HJ-1A)     
1 33320U 08041A   24194.17852766  .00002163  00000+0  29112-3 0  9995
2 33320  97.6308 199.9583 0018651 291.2855  68.6367 14.80083565854051
HUANJING 1B (HJ-1B)     
1 33321U 08041B   24194.17776182  .00001614  00000+0  21568-3 0  9990
2 33321  97.6259 204.4905 0037563 336.6836  23.2672 14.80355469854076
YAOGAN-4                
1 33446U 08061A   24194.04110144  .00001607  00000+0  21931-3 0  9992
2 33446  97.8794 125.4509 0014447 199.3002 160.7665 14.79928957841236
DEIMOS-1                
1 35681U 09041A   24194.18759483  .00000901  00000+0  14623-3 0  9990
2 35681  97.6810  14.7704 0000861  21.1806 338.9439 14.73386690802996
UK-DMC 2                
1 35683U 09041C   24194.12726811  .00001327  00000+0  21199-3 0  9994
2 35683  97.7845 340.7502 0001434  84.1644 275.9728 14.73406416802687
DMC3-FM1                
1 40715U 15032A   24194.18448523  .00001050  00000+0  13312-3 0  9991
2 40715  97.7470  72.3643 0005066 196.8738 163.2308 14.83751610485283
DMC3-FM2                
1 40716U 15032B   24194.20723416  .00001028  00000+0  13047-3 0  9992
2 40716  97.7523  73.4726 0006825 205.6411 154.4465 14.83758449485281
DMC3-FM3                
1 40717U 15032C   24194.23331259  .00001013  00000+0  12889-3 0  9993
2 40717  97.7572  74.7855 0008324 204.3068 155.7755 14.83666572485295
NOAA 15                 
1 25338U 98030A   24194.13490405  .00000338  00000+0  15778-3 0  9991
2 25338  98.5673 220.7397 0009162 249.2113 110.8086 14.26624935360994
DMSP 5D-3 F16 (USA 172) 
1 28054U 03048A   24194.20089219  .00000136  00000+0  95467-4 0  9999
2 28054  99.0203 200.9033 0007080 351.5175  84.1110 14.14048490 69817
NOAA 18                 
1 28654U 05018A   24194.20002518  .00000305  00000+0  18657-3 0  9994
2 28654  98.8740 270.9575 0013936 357.0382   3.0706 14.13250507986791
METEOSAT-9 (MSG-2)      
1 28912U 05049B   24193.78079729  .00000130  00000+0  00000+0 0  9990
2 28912   7.7411  60.6645 0001917   1.0958 195.1830  1.00275814 68001
EWS-G1 (GOES 13)        
1 29155U 06018A   24193.56854997 -.00000248  00000+0  00000+0 0  9992
2 29155   2.6880  85.0189 0077941 255.8362 282.7320  0.99058972 36279
DMSP 5D-3 F17 (USA 191) 
1 29522U 06050A   24194.15634573  .00000149  00000+0  10024-3 0  9998
2 29522  98.7433 204.2168 0008877 268.9030  91.1126 14.14499293912724
FENGYUN 3A              
1 32958U 08026A   24194.13309354  .00000210  00000+0  12079-3 0  9995
2 32958  98.6047 140.5327 0008911   8.5976 351.5352 14.19119258835493
NOAA 19                 
1 33591U 09005A   24194.15497896  .00000279  00000+0  17402-3 0  9998
2 33591  99.0457 250.2170 0013231 218.2708 141.7525 14.13045131795157
GOES 14                 
1 35491U 09033A   24192.96311144 -.00000061  00000+0  00000+0 0  9990
2 35491   0.3944 101.8439 0003736   7.5167  58.2168  1.00272828 55038
DMSP 5D-3 F18 (USA 210) 
1 35951U 09057A   24194.16908583  .00000419  00000+0  24269-3 0  9993
2 35951  98.8148 169.1844 0012398  94.9275 265.3314 14.14162105759892
EWS-G2 (GOES 15)        
1 36411U 10008A   24193.56908125  .00000047  00000+0  00000+0 0  9998
2 36411   0.3661  89.0153 0003013 105.3369   1.6213  1.00271998 52550
COMS 1                  
1 36744U 10032A   24193.56854997 -.00000338  00000+0  00000+0 0  9995
2 36744   3.0026  84.1012 0000803  29.1262 149.5326  1.00271264 51577
FENGYUN 3B              
1 37214U 10059A   24194.24956229  .00000129  00000+0  90745-4 0  9991
2 37214  99.0536 222.6903 0022562  24.5940  43.8521 14.14518655707799
SUOMI NPP               
1 37849U 11061A   24194.13518133  .00000151  00000+0  92567-4 0  9994
2 37849  98.7221 131.7411 0001235 126.6557 233.4733 14.19527917658407
FENGYUN 2F              
1 38049U 12002A   24193.86459410 -.00000352  00000+0  00000+0 0  9994
2 38049   5.6534  72.8913 0001657 119.5167 161.2797  1.00271343 45810
METEOSAT-10 (MSG-3)     
1 38552U 12035B   24194.20115611  .00000002  00000+0  00000+0 0  9991
2 38552   3.0200  61.1670 0000382 312.9589 348.8618  1.00271973 44142
METOP-B                 
1 38771U 12049A   24194.16164528  .00000208  00000+0  11494-3 0  9996
2 38771  98.6265 250.8224 0001316  81.8442 278.2885 14.21452009613092
INSAT-3D                
1 39216U 13038B   24193.85321906 -.00000328  00000+0  00000+0 0  9991
2 39216   0.0975  96.6558 0000883  76.8462 163.4884  1.00569221 40234
FENGYUN 3C              
1 39260U 13052A   24194.24781531  .00000174  00000+0  10853-3 0  9993
2 39260  98.4287 192.5262 0009823 253.2171 106.7927 14.16228668558879
METEOR-M 2              
1 40069U 14037A   24194.23860411  .00000223  00000+0  12222-3 0  9997
2 40069  98.4369 187.3578 0004565 290.9552  69.1137 14.20993674519187
HIMAWARI-8              
1 40267U 14060A   24193.34424587 -.00000269  00000+0  00000+0 0  9992
2 40267   0.0144 256.2444 0001403 238.0317  60.0532  1.00267794 35784
